CCSDS_OMM_VERS = 2.0
CREATION_DATE  = 
ORIGINATOR     = 

OBJECT_NAME    = GUOWANG GROUP 20 OBJECT E
OBJECT_ID      = 2026-047E
CENTER_NAME    = EARTH
REF_FRAME      = TEME
TIME_SYSTEM    = UTC
MEAN_ELEMENT_THEORY = SGP/SGP4

EPOCH          = 2026-03-22T07:51:30.148128
MEAN_MOTION    = 14.03282701
ECCENTRICITY   = .00018453
INCLINATION    = 50.0037
RA_OF_ASC_NODE = 18.9087
ARG_OF_PERICENTER = 286.6306
MEAN_ANOMALY   = 73.4395

EPHEMERIS_TYPE = 0
CLASSIFICATION_TYPE = U
NORAD_CAT_ID   = 68133
ELEMENT_SET_NO = 999
REV_AT_EPOCH   = 134
BSTAR          = .21599298E-4
MEAN_MOTION_DOT = -.117E-5
MEAN_MOTION_DDOT = 0

CCSDS_OMM_VERS = 2.0
CREATION_DATE  = 
ORIGINATOR     = 

OBJECT_NAME    = GUOWANG GROUP 20 OBJECT F
OBJECT_ID      = 2026-047F
CENTER_NAME    = EARTH
REF_FRAME      = TEME
TIME_SYSTEM    = UTC
MEAN_ELEMENT_THEORY = SGP/SGP4

EPOCH          = 2026-03-22T12:56:16.652832
MEAN_MOTION    = 14.03853988
ECCENTRICITY   = .00015499
INCLINATION    = 50.0098
RA_OF_ASC_NODE = 18.0376
ARG_OF_PERICENTER = 290.5042
MEAN_ANOMALY   = 69.5697

EPHEMERIS_TYPE = 0
CLASSIFICATION_TYPE = U
NORAD_CAT_ID   = 68134
ELEMENT_SET_NO = 999
REV_AT_EPOCH   = 136
BSTAR          = .80291987E-4
MEAN_MOTION_DOT = -.24E-6
MEAN_MOTION_DDOT = 0

CCSDS_OMM_VERS = 2.0
CREATION_DATE  = 
ORIGINATOR     = 

OBJECT_NAME    = GUOWANG GROUP 20 OBJECT G
OBJECT_ID      = 2026-047G
CENTER_NAME    = EARTH
REF_FRAME      = TEME
TIME_SYSTEM    = UTC
MEAN_ELEMENT_THEORY = SGP/SGP4

EPOCH          = 2026-03-22T14:39:59.859936
MEAN_MOTION    = 14.03554926
ECCENTRICITY   = .00023781
INCLINATION    = 50.0130
RA_OF_ASC_NODE = 17.7516
ARG_OF_PERICENTER = 303.3923
MEAN_ANOMALY   = 56.6754

EPHEMERIS_TYPE = 0
CLASSIFICATION_TYPE = U
NORAD_CAT_ID   = 68135
ELEMENT_SET_NO = 999
REV_AT_EPOCH   = 138
BSTAR          = .11610707E-3
MEAN_MOTION_DOT = .32E-6
MEAN_MOTION_DDOT = 0

CCSDS_OMM_VERS = 2.0
CREATION_DATE  = 
ORIGINATOR     = 

OBJECT_NAME    = GUOWANG GROUP 20 OBJECT H
OBJECT_ID      = 2026-047H
CENTER_NAME    = EARTH
REF_FRAME      = TEME
TIME_SYSTEM    = UTC
MEAN_ELEMENT_THEORY = SGP/SGP4

EPOCH          = 2026-03-22T12:54:53.844480
MEAN_MOTION    = 14.04117144
ECCENTRICITY   = .00028835
INCLINATION    = 50.0090
RA_OF_ASC_NODE = 18.0296
ARG_OF_PERICENTER = 313.7948
MEAN_ANOMALY   = 46.2718

EPHEMERIS_TYPE = 0
CLASSIFICATION_TYPE = U
NORAD_CAT_ID   = 68136
ELEMENT_SET_NO = 999
REV_AT_EPOCH   = 136
BSTAR          = .35642897E-4
MEAN_MOTION_DOT = -.95E-6
MEAN_MOTION_DDOT = 0

CCSDS_OMM_VERS = 2.0
CREATION_DATE  = 
ORIGINATOR     = 

OBJECT_NAME    = GUOWANG GROUP 20 OBJECT J
OBJECT_ID      = 2026-047J
CENTER_NAME    = EARTH
REF_FRAME      = TEME
TIME_SYSTEM    = UTC
MEAN_ELEMENT_THEORY = SGP/SGP4

EPOCH          = 2026-03-22T12:53:07.368576
MEAN_MOTION    = 14.04378980
ECCENTRICITY   = .00009639
INCLINATION    = 50.0076
RA_OF_ASC_NODE = 18.0273
ARG_OF_PERICENTER = 332.2478
MEAN_ANOMALY   = 27.8375

EPHEMERIS_TYPE = 0
CLASSIFICATION_TYPE = U
NORAD_CAT_ID   = 68137
ELEMENT_SET_NO = 999
REV_AT_EPOCH   = 137
BSTAR          = .12583137E-4
MEAN_MOTION_DOT = -.132E-5
MEAN_MOTION_DDOT = 0

CCSDS_OMM_VERS = 2.0
CREATION_DATE  = 
ORIGINATOR     = 

OBJECT_NAME    = CZ-8A R/B
OBJECT_ID      = 2026-047K
CENTER_NAME    = EARTH
REF_FRAME      = TEME
TIME_SYSTEM    = UTC
MEAN_ELEMENT_THEORY = SGP/SGP4

EPOCH          = 2026-03-23T11:38:40.796160
MEAN_MOTION    = 14.12230441
ECCENTRICITY   = .0044767
INCLINATION    = 49.9540
RA_OF_ASC_NODE = 13.6249
ARG_OF_PERICENTER = 185.7452
MEAN_ANOMALY   = 174.2947

EPHEMERIS_TYPE = 0
CLASSIFICATION_TYPE = U
NORAD_CAT_ID   = 68138
ELEMENT_SET_NO = 999
REV_AT_EPOCH   = 150
BSTAR          = .13613E-3
MEAN_MOTION_DOT = .1E-5
MEAN_MOTION_DDOT = 0

CCSDS_OMM_VERS = 2.0
CREATION_DATE  = 
ORIGINATOR     = 

OBJECT_NAME    = SHIYAN-30 03
OBJECT_ID      = 2026-048A
CENTER_NAME    = EARTH
REF_FRAME      = TEME
TIME_SYSTEM    = UTC
MEAN_ELEMENT_THEORY = SGP/SGP4

EPOCH          = 2026-03-23T08:36:47.593152
MEAN_MOTION    = 14.91694178
ECCENTRICITY   = .0003812
INCLINATION    = 35.0003
RA_OF_ASC_NODE = 62.1298
ARG_OF_PERICENTER = 315.1927
MEAN_ANOMALY   = 44.8470

EPHEMERIS_TYPE = 0
CLASSIFICATION_TYPE = U
NORAD_CAT_ID   = 68139
ELEMENT_SET_NO = 999
REV_AT_EPOCH   = 154
BSTAR          = .25911E-3
MEAN_MOTION_DOT = .2629E-4
MEAN_MOTION_DDOT = 0

CCSDS_OMM_VERS = 2.0
CREATION_DATE  = 
ORIGINATOR     = 

OBJECT_NAME    = SHIYAN-30 04
OBJECT_ID      = 2026-048B
CENTER_NAME    = EARTH
REF_FRAME      = TEME
TIME_SYSTEM    = UTC
MEAN_ELEMENT_THEORY = SGP/SGP4

EPOCH          = 2026-03-23T08:37:52.275648
MEAN_MOTION    = 14.91704041
ECCENTRICITY   = .0002316
INCLINATION    = 34.9918
RA_OF_ASC_NODE = 62.1352
ARG_OF_PERICENTER = 314.4877
MEAN_ANOMALY   = 45.5638

EPHEMERIS_TYPE = 0
CLASSIFICATION_TYPE = U
NORAD_CAT_ID   = 68140
ELEMENT_SET_NO = 999
REV_AT_EPOCH   = 154
BSTAR          = .24996E-3
MEAN_MOTION_DOT = .2536E-4
MEAN_MOTION_DDOT = 0

CCSDS_OMM_VERS = 2.0
CREATION_DATE  = 
ORIGINATOR     = 

OBJECT_NAME    = CZ-2D R/B
OBJECT_ID      = 2026-048C
CENTER_NAME    = EARTH
REF_FRAME      = TEME
TIME_SYSTEM    = UTC
MEAN_ELEMENT_THEORY = SGP/SGP4

EPOCH          = 2026-03-23T09:38:57.708384
MEAN_MOTION    = 14.95542996
ECCENTRICITY   = .0014895
INCLINATION    = 35.1298
RA_OF_ASC_NODE = 61.8015
ARG_OF_PERICENTER = 85.2890
MEAN_ANOMALY   = 274.9519

EPHEMERIS_TYPE = 0
CLASSIFICATION_TYPE = U
NORAD_CAT_ID   = 68141
ELEMENT_SET_NO = 999
REV_AT_EPOCH   = 155
BSTAR          = .14839E-3
MEAN_MOTION_DOT = .1648E-4
MEAN_MOTION_DDOT = 0

CCSDS_OMM_VERS = 2.0
CREATION_DATE  = 
ORIGINATOR     = 

OBJECT_NAME    = STARLINK-36604
OBJECT_ID      = 2026-049A
CENTER_NAME    = EARTH
REF_FRAME      = TEME
TIME_SYSTEM    = UTC
MEAN_ELEMENT_THEORY = SGP/SGP4

EPOCH          = 2026-03-19T13:52:52.185792
MEAN_MOTION    = 16.01563866
ECCENTRICITY   = .00005554
INCLINATION    = 97.2797
RA_OF_ASC_NODE = 98.1391
ARG_OF_PERICENTER = 65.4234
MEAN_ANOMALY   = 294.7104

EPHEMERIS_TYPE = 0
CLASSIFICATION_TYPE = U
NORAD_CAT_ID   = 68142
ELEMENT_SET_NO = 999
REV_AT_EPOCH   = 96
BSTAR          = -.10855232E-2
MEAN_MOTION_DOT = -.601426E-2
MEAN_MOTION_DDOT = .12953804E-3

CCSDS_OMM_VERS = 2.0
CREATION_DATE  = 
ORIGINATOR     = 

OBJECT_NAME    = STARLINK-36995
OBJECT_ID      = 2026-049B
CENTER_NAME    = EARTH
REF_FRAME      = TEME
TIME_SYSTEM    = UTC
MEAN_ELEMENT_THEORY = SGP/SGP4

EPOCH          = 2026-03-19T06:22:43.389408
MEAN_MOTION    = 16.02629136
ECCENTRICITY   = .0000959
INCLINATION    = 97.2800
RA_OF_ASC_NODE = 97.7985
ARG_OF_PERICENTER = 13.3742
MEAN_ANOMALY   = 346.7563

EPHEMERIS_TYPE = 0
CLASSIFICATION_TYPE = U
NORAD_CAT_ID   = 68143
ELEMENT_SET_NO = 999
REV_AT_EPOCH   = 91
BSTAR          = -.90105E-3
MEAN_MOTION_DOT = -.531426E-2
MEAN_MOTION_DDOT = .10413E-3

CCSDS_OMM_VERS = 2.0
CREATION_DATE  = 
ORIGINATOR     = 

OBJECT_NAME    = STARLINK-37020
OBJECT_ID      = 2026-049C
CENTER_NAME    = EARTH
REF_FRAME      = TEME
TIME_SYSTEM    = UTC
MEAN_ELEMENT_THEORY = SGP/SGP4

EPOCH          = 2026-03-19T12:20:37.301568
MEAN_MOTION    = 16.04472428
ECCENTRICITY   = .00004674
INCLINATION    = 97.2794
RA_OF_ASC_NODE = 98.0724
ARG_OF_PERICENTER = 166.1555
MEAN_ANOMALY   = 193.9739

EPHEMERIS_TYPE = 0
CLASSIFICATION_TYPE = U
NORAD_CAT_ID   = 68144
ELEMENT_SET_NO = 999
REV_AT_EPOCH   = 95
BSTAR          = .15013758E-2
MEAN_MOTION_DOT = .978873E-2
MEAN_MOTION_DDOT = .50884471E-3

